GLOBALSTAR M063         
1 26081U 00008A   25334.15523762 -.00000103  00000+0 -30500-3 0  9999
2 26081  51.9980  34.4672 0004274 267.5680 116.2514 11.86177454177276
GLOBALSTAR M062         
1 26082U 00008B   25334.02445362 -.00000031  00000+0  48214-3 0  9995
2 26082  51.9863 328.1001 0007305 105.4359 290.6054 12.43478270517253
GLOBALSTAR M060         
1 26083U 00008C   25334.12818993 -.00000055  00000+0  35752-3 0  9990
2 26083  52.0037 311.2808 0003448  95.0415 345.2492 12.17668780172582
GLOBALSTAR M064         
1 26084U 00008D   25333.90335679 -.00000074  00000+0  13649-3 0  9993
2 26084  52.0005 132.0057 0001951  54.0458 306.0555 11.88539243186805
GLOBALSTAR M065         
1 31571U 07020A   25334.01569035 -.00000070  00000+0  18562-3 0  9994
2 31571  51.9898  81.5319 0009216 317.5151 213.8582 12.62015179854344
GLOBALSTAR M069         
1 31573U 07020C   25333.79084693 -.00000078  00000+0  13034-3 0  9999
2 31573  52.0027  96.4918 0002732 103.9835  51.9779 12.23464184854399
GLOBALSTAR M072         
1 31574U 07020D   25334.07896652 -.00000088  00000+0 -56142-4 0  9998
2 31574  51.9944 270.3259 0000992 323.0015  49.7876 11.91653594851241
GLOBALSTAR M071         
1 31576U 07020F   25334.13336296 -.00000130  00000+0 -38344-3 0  9991
2 31576  52.0038 125.8192 0001958  96.0544  75.0904 12.18262227515167
